,index,Name,Latitude,Longitude,City,Address,Phone_number,n_bike,n_bus,n_barpub
0,0,MASO FRANCH GOURMET E RELAIS,46.1441,11.1186,Giovo,"Maso Franch, 2",+39 0461 245533,Grazioli,Maso Franch,Gourmet Relais & Maso Franch
1,1,ALBERGO VILLA ANITA,46.1335,11.2487,Baselga di Piné,"VIA DEL FÒSCH, 21",+39 0461 557106,Grazioli,Baselga di Pine'-Lago,Villa Anita
2,2,HOTEL TIROL NATURAL IDYLL,46.2173,11.3267,Sover,"VIA CAP. DOMENICO SANTUARI, 3",+39 0461 698377,Mach,Montesover,Tirol - Natural Idill
3,3,HOTEL PINETA,46.1549,11.286,Bedollo,Loc. Lago delle Piazze,+39 0461 556642,Mach,Piazze di Bedollo,ALBERGO PINETA 
4,4,R.T.A. MONTECHIARA,46.1494,11.2688,Baselga di Piné,"CAMPOLONGO, 120 Fraz. CAMPOLONGO",+39 0461 557140,Mach,Campolongo,Montechiara
5,5,HOTEL FIOR DI BOSCO,46.1776,11.1674,Giovo,"FRAZIONE MASEN, 10",+39 0461 695008,Mach,Ville di Giovo,Fior di bosco 
6,6,ALBERGO RISTORANTE LA SCARDOLA,46.1293,11.2446,Baselga di Piné,"VIA DEL 26 MAGGIO, 1-3 Fraz. MIOLA",+39 0461 557647,Grazioli,Baselga Municipio,Al Bivio
7,7,HOTEL ALLA COMPARSA,46.094128,11.2339,Baselga di Piné,"FR. GUARDIA, 14",+39 0461 557707, Cimitero Villazzano,Montagnaga,Hotel Belvedere Wellness & Family
8,8,L'OST,46.222212,11.293956,Grumes,"Via Fontana, 20",+39 0461 685127,Mach,Grumes,Stella Alpina
9,9,Villa Fontana ***,46.077346,11.116822,Trento,"Via Felice e Gregorio Fontana, 11",+39 0461 829800, Campo CONI,F.Lli Fontana Oberziner,QUASI BAR
10,10,Europa **,46.051386,11.072276,Trento,"Strada di Vaneze, 31",+39 0461 947183, Muse,Vaneze,QUASI BAR
11,11,Buonconsiglio ****,46.072929,11.122554,Trento,"Via Romagnosi, 14",+39 0461 272888, Vannetti,Romagnosi Vannetti,QUASI BAR
12,12,Le Blanc Hotel & Spa ****,46.041741,11.059603,Trento,"Strada di Vason, 64",+39 0461 947457, Muse,Vason-Sp85 Al Km 17,QUASI BAR
13,13,Grand Hotel Trento ****,46.071057,11.121219,Trento,"Via Alfieri, 1/3",+39 0461 271000, Biblioteca,"Piazza Dante ""Pal. Regione""",QUASI BAR
14,14,"Ostello della Gioventù ""Giovane Europa""",46.06997,11.119194,Trento,"Via Torre Vanga, 11",+39 0461 263484, Stazione Autocorriere,Cavalcavia S.Lorenzo,QUASI BAR
15,15,Everest ***,46.078611,11.11841,Trento,"Corso degli Alpini, 14",+39 0461 825300, Campo CONI,Degli Alpini Oberziner,QUASI BAR
16,16,Karinhall ***,45.995601,11.126269,Trento,"Loc. I Grezzi, 17",+39 0461 945339, Mattarello,Mattarello-Ex St.Vestimenta,Bar Smile
17,17,Accademia ****,46.068788,11.120519,Trento,"Vicolo Colico, 4/6",+39 0461 233600, Stazione Autocorriere,Trento Via Rosmini,QUASI BAR
18,18,Prada Sport *,46.038625,11.05827,Trento,"Strada di Vason, 87",+39 0461 948188, PalaTrento,Vason,QUASI BAR
19,19,Alpine Mugon ****,46.041015,11.059336,Trento,"Strada per Vason, 118",+39 0461 947116 - 0461 939063, Muse,Vason,QUASI BAR
20,20,Venezia **,46.067268,11.121232,Trento,"Piazza Duomo, 45",+39 0461 234559, Università,Rosmini S.Maria Maggiore,QUASI BAR
21,21,Nevada **,46.039757,11.058471,Trento,"Strada di Vason, 61",+39 0461 948117, Muse,Vason,QUASI BAR
22,22,Sporting Trento ***,46.051187,11.111769,Trento,"Via R. da Sanseverino, 125",+39 0461 391215, Bezzi,Sanseverino S.Nicolò,QUASI BAR
23,23,San Giorgio della Scala ***,46.07352,11.103739,Trento,"Via Brescia, 133",+39 0461 238848, Zuffo 2 via dos Trento,"Brescia ""Ca Dei Gai""",QUASI BAR
24,24,Laghetto ***,46.001799,11.085583,Garniga Terme,"Via Bagni di Fieno, 19",+39 0461 842909, Aldeno,Garniga Terme,Rosa Nera
25,25,Floriani ***,46.033933,11.004701,Lagolo,"Via Coste de Lagol, 9",+39 0461 564241, Muse,Madruzzo Bivio,Gourmet Relais & Maso Franch
26,26,Ideal ***,46.046988,10.952119,Madruzzo,"Piazza Valussi, 2",+39 0461 564131, Zuffo 2 via dos Trento,Sarche-Centro Comm.,Gourmet Relais & Maso Franch
27,27,Miramonti ***,46.001956,11.085328,Garniga Terme,"Via dei Bagni di Fieno, 20",+39 0461 843243, Aldeno,Garniga Terme,Rosa Nera
28,28,Dolomiti Chalet Family hotel ***,46.027558,11.045175,Trento,"Strada di Vason, 88",+39 0461 947158, PalaTrento,Rocce Rosse,QUASI BAR
29,29,Terme San Leonardo ***,46.080888,11.043555,Trento,"Via per Vigolo Baselga, 8",+39 0461 866143, Roncafort,Vigolo Baselga-Ss45,Gourmet Relais & Maso Franch
30,30,Piccolo Principe ****,46.041486,11.004835,Lagolo,"Via Monte Bondone, 11",+39 0461 564250, Muse,Calavino-Via Battisti,Gourmet Relais & Maso Franch
31,31,Relais Villa Madruzzo ****,46.074083,11.146586,Trento,"Via Ponte Alto, 20",+39 0461 986220, Piazza Venezia,Cognola Grezoni,QUASI BAR
32,32,Relais Vecchio Maso ****,46.068303,11.056526,Trento,"Str. Monastero S. Anna, 2",+39 0461 1922000, Zuffo 2 via dos Trento,"Sopramonte ""Bunaga""",Gourmet Relais & Maso Franch
33,33,Vela ***,46.081945,11.102854,Trento,"Via SS. Cosma e Damiano, 21",+39 0461 827200, Zuffo 2 via dos Trento,Vela Centro,QUASI BAR
34,34,Sartoris ****,46.142265,11.103669,Lavis,"Via Nazionale, 33",+39 0461 246563, Stazione TN-Malè,Lavis Via Cembra 16,Gourmet Relais & Maso Franch
35,35,Zodiaco ***,46.051062,11.072427,Trento,"Strada per Vaneze, 23",+39 0461 939242, Muse,Vaneze,QUASI BAR
36,36,Bressan *,46.061551,10.990252,Pardegnone,"Via Nazionale, 15",+39 0461 864041, Zuffo 2 via dos Trento,Padergnone,Gourmet Relais & Maso Franch
37,37,Al Marinaio ***,46.035116,11.126162,Trento,"Via dei Marinai dItalia, 28",+39 0461 933053, Lidorno,Parcheggio Area Camper,Rosa Nera
38,38,Albermonaco ***?,46.0731,11.126414,Trento,"Via Torre dAugusto, 25",+39 0461 983060, Piazza di Centa,"Sanzio ""Castello""",QUASI BAR
39,39,America ***,46.071124,11.124129,Trento,"Via Torre Verde, 50",+39 0461 983010, Biblioteca,Torre Verde Galasso,QUASI BAR
40,40,Miralaghi **,46.058905,10.97911,Pardegnone,"Via Nazionale, 114",+39 0461 864010, Zuffo 2 via dos Trento,Due Laghi-Hotel Miralaghi,Gourmet Relais & Maso Franch
41,41,Monte Bondone ***,46.097411,11.058246,Trento,"Via dei Falchi, 19",+39 0461 947118, Roncafort,Lago di Terlago-Hotel Lillà,Gourmet Relais & Maso Franch
42,42,Due Laghi *,46.058938,10.978665,Pardegnone,"Via Nazionale, 117",+39 0461 864198, Zuffo 2 via dos Trento,Due Laghi-Hotel Miralaghi,Gourmet Relais & Maso Franch
43,43,Lillà ***?,46.098071,11.058179,Terlago,"Loc. Maso Travolt, 14",+39 0461 868027, Roncafort,Lago di Terlago-Hotel Lillà,Gourmet Relais & Maso Franch
44,44,Chalet Caminetto ***,46.038109,11.055346,Trento,"Strada di Vason, 139",+39 0461 948090, PalaTrento,Vason,QUASI BAR
45,45,Vason **,46.039487,11.057727,Trento,"Strada di Vason, 100",+39 0461 948149, PalaTrento,Vason,QUASI BAR
46,46,Montana ***?,46.040801,11.058415,Trento,"Strada di Vason, 70",+39 0461 948200, Muse,Vason,QUASI BAR
47,47,Vezzano **,46.077407,10.998532,Vezzano,"Via Roma, 156",+39 0461 864062, Roncafort,Vezzano,Gourmet Relais & Maso Franch
48,48,Aquila d'Oro ****,46.067842,11.121495,Trento,"Via R. Belenzani, 76",+39 0461 986282, Università,Rosmini S.Maria Maggiore,QUASI BAR
49,49,Norge wellness resort ****,46.048775,11.066649,Trento,"Strada per il Norge, 3",+39 0461 947436, Muse,Vaneze-Norge,QUASI BAR
50,50,Best Western ****,46.111387,11.092597,Trento,"Via Innsbruck, 11",+39 0461 966811, Gardolo - ex segheria,"Interporto ""Interbrennero""",Gourmet Relais & Maso Franch
51,51,Al Vecchio Mulino ***,46.076509,11.019952,Vezzano,"Loc. Naran, 1",+39 0461 864277, Roncafort,Vigolo Baselga-Pallonc.Rosso,Gourmet Relais & Maso Franch
52,52,Oasi *,46.099792,11.112011,Trento,"Via Bolzano, 14",+39 0461 992223 cell. 338 4040877, Canova,Gardolo-Cima,Gourmet Relais & Maso Franch
53,53,Augustus **,46.051569,11.072813,Trento,"Strada di Vaneze, 33/35",+39 0461 948030, Muse,Vaneze-Sp 85 Civ. 20,QUASI BAR
54,54,Adige ****,46.01488,11.132218,Trento,"Via Pomeranos, 10",+39 0461 944545, Aeroporto,Mattarello-Via Nazionale,Bar Smile
55,55,ALBERGO  AL CAMINETTO,46.1743,11.2235,Cembra,"Via C. Battisti, 7/9",+39 0461 683007,Mach,Cembra,Virus
56,56,ALBERGO 2 CAMINI,46.1258,11.2441,Baselga di Piné,"VIA DEL 26 MAGGIO, 65 Fraz. MIOLA",+39 0461 557200,Grazioli,Miola-Bivio Ferrari/Miola,Due camini
57,57,ALBERGO VILLA BETTY,46.126167,11.2353998,,"FRAZ. TRESSILLA, 32",+39 0461 557132,Grazioli,Tressilla,Due Pini
58,58,ALBERGO ITALIA,46.1339,11.2485,,"VIA C.BATTISTI, 96/98",,Grazioli,Baselga di Pine'-Lago,Villa Anita
59,59,ALBERGO EUROPA,46.1716,11.2199,Cembra,"VIA SAN CARLO, 19",+39 0461 683032,Mach,Cembra-Polo Scolastico,Rosalpina
60,60,ALBERGO DOLOMITI,46.16029,11.235001,Lona-Lases,"VIA PROVINCIALE, 28 Fraz. LONA",+39 0461 697029,Mach,Lona,Bar Ezzo
61,61,ALBERGO SERRAIA,46.1348,11.2491,Baselga di Piné,"VIALE DELLA SERRAIA, 3 ",+39 0461 557027,Grazioli,Baselga di Pine'-Lago,Bar Serraia
62,62,BIO HOTEL  BRUSAGO,46.1828,11.3255,Bedollo,"PIAZZA ROSMINI, 2 Fraz. BRUSAGO",+39 0461 556646,Mach,Brusago,BIO HOTEL BRUSAGO
63,63,GARNI' TURISMO,46.1175,11.2049,Fornace,"VIA DI SPIAZ, 19",+39 0461 849088, Bren Center,Fornace-Scuole,Bar Commercio
64,64,OLIMPIC HOTEL,46.125,11.2512,Baselga di Piné,"VIA DEL CADRÒBOL, 24 Fraz. MIOLA",+39 0461 558422, Bren Center,Miola-St. Ghiaccio,Ice Bar
65,65,ALBERGO RISTORANTE ALLE PIRAMIDI (SEGONZANO),46.187355,11.2584,Segonzano,"FRAZIONE SCANCIO, 24",+39 0461 686106,Mach,Scancio di Segonzano,Alle piramidi
66,66,PENSIONE MARIA TURISMO RURALE,46.23814,11.325241,Sover,"VIA DEL LAGORAI, 30 Fraz. PISCINE",+39 0461 698251,Mach,Piscine,Pensione Maria
67,67,ALBERGO SAN GIORGIO,46.1005,11.235456,Baselga di Piné,"VIA BERNARDI, 2 Fraz. MONTAGNAGA",+39 0461 557756, Cimitero Villazzano,"Montagnaga ""Villa Alpina""",S.Giorgio
68,68,POSTA 1899 - RISTORANTE CA' DEI BOCI,46.09855,11.2357,Baselga di Piné,"VIA D. TARGA, 1 Fraz. MONTAGNAGA",+39 0461 558322, Cimitero Villazzano,Montagnaga,Hotel Posta
69,69,HOTEL EDERA,46.1285,11.2374,Baselga di Piné,"TRESSILLA, 19 Fraz. TRESSILLA",+39 0461 557221,Grazioli,Tressilla,Due camini
70,70,GARNI' LAURA,46.1227,11.2597,Baselga di Piné,"VIA DEI PRAI, 37",+39 0461 553017, Bren Center,Canè,Ice Bar
71,71,ALBERGO VILLA PINE',46.131704,11.2425965,,"VIA SCUOLE, 9",,Grazioli,Baselga Municipio,Alpino
72,72,ALBERGO LAGORAI,46.1272,11.2466,Baselga di Piné,"VIA DEI CADUTI, 21",+39 0461 557044,Grazioli,Miola,Hotel Lagorai
73,73,ALBERGO MIRAMONTI ,46.1558,11.2879,Bedollo,"Via C.Cavour, 20",info@miramontipine.it,Mach,Piazze di Bedollo,ALBERGO PINETA 
74,74,ALBERGO RISTORANTE DOSS PULES,46.155827,11.155343,Giovo,LOCALITA' DOSS DEL PULES Fraz. VERLA,+39 0461 684046, Pressano,Verla-Cantina Rossi,Bar al Portec
75,75,HOTEL KRONE,46.1343,11.2486,Baselga di Piné,"VIA CESARE BATTISTI, 109/111",+39 0461 553160,Grazioli,Baselga di Pine'-Lago,Bianco
76,76,Hotel Scoiattolo,46.1125,11.234166,Baselga di Piné,"VIA DEL BEDOLÈ, 12/14 Fraz. BEDOLE'",+39 0461 557739, Bren Center,Ferrari-Hotel Scoiattolo,S.Giorgio
77,77,ALBERGO LAGO SANTO,46.1969,11.2055,Cembra,"LOCALITÀ LAGO SANTO, 1 Fraz. LAGO SANTO",+39 0461 683066,Mach,Cembra-Loc.Molini,Albergo al lago
78,78,GARNI' VILLA LORY,46.123,11.2522,Baselga di Piné,"VIA DEL CADROBOL, 32 Fraz. MIOLA",+39 0461 557211, Bren Center,Miola-St. Ghiaccio,Ice Bar
79,79,ALBERGO LAGO SANTA COLOMBA,46.12445,11.1798,Civezzano,"LOCALITA' SANTA COLOMBA, 80/81 ",+39 0461 850122, Gardolo - ex segheria,Bosco-Loc. Canova,BAR SPORT (ALBIANO)
80,80,HOTEL 2 PINI,46.123916,11.241694,Baselga di Piné,"VIA DEL 26 MAGGIO, 24 Fraz. VIGO DI BASELGA",+39 0461 557030, Bren Center,Miola-Bivio Ferrari/Miola,Due Pini
81,81,ALBERGO PONCIACH,46.2075,11.2312,Faver,"VIA PONCIACH, 14 Fraz. PONCIACH",+39 0461 683166,Mach,Faver Loc. Portegnago,Happy Ranch Saloon
82,82,ALBERGO POSTA,46.088844,11.180852,Civezzano,"VIA ROMA, 28",+39 0461 858525, Piazza di Centa,Civezzano-Strada Alla Fersina,QUASI BAR
83,83,ALBERGO RITORANTE DUE LAGHI,46.1508,11.273,Baselga di Piné,"LOCALITA' CAMPOLONGO, 116",+39 0461 554074 ,Mach,Campolongo,Due Laghi
84,84,HOTEL ALLE PIRAMIDI,46.187355,11.2584,Segonzano,"FRAZIONE SCANCIO, 24 Fraz. SCANCIO",+39 0461 686106,Mach,Scancio di Segonzano,Alle piramidi
85,85,HOTEL BELVEDERE WELLNESS & FAMILY,46.0959,11.2345,Baselga di Piné,"VIA D. TARGA, 45 Fraz. MONTAGNAGA",+39 0461 557750, Cimitero Villazzano,Montagnaga,Hotel Belvedere Wellness & Family
86,86,HOTEL MONTECROCE,46.1826,11.3259,Bedollo,"PIAZZA ROSMINI, 6 Fraz. BRUSAGO",+39 0461 556603,Mach,Brusago,ALBERGO MONTECROCE
87,87,HOTEL SALVANEL,46.2925,11.4598,Cavalese,"VIA CARLO ESTERLE, 3",+39(0462)232057,Stazione TN-Malè - RFI,Cavalese P. Francescani,BIRRERIA E SPAGHETTERIA IL VICOLETTO
88,88,ALLA ROSA,46.3108059,11.6013302,Predazzo,"VIA GARIBALDI, 30",+39(0462)501239,Mach,Predazzo-I.T.C.,CAFFE' PREDAZZO
89,89,STELLA,46.2901777,11.4605315,Cavalese,"PIAZZA 12 PARTIGIANI, 7",+39(0462)341363,Stazione TN-Malè - RFI,Cavalese Piazza G.Verdi,TANA DEL GRILLO
90,90,PARK HOTEL AZALEA,46.2899,11.4579,Cavalese,"VIA CESURE, 1",+39(0462)340109,Stazione TN-Malè - RFI,Cavalese Piazza G.Verdi,BAR GIARDINETTO
91,91,HOTEL LA ROCCIA,46.2888972,11.4685805,Cavalese,"VIA MARCO, 53",+39(0462)231133,Stazione TN-Malè - RFI,Cavalese-Case Itea,FITNESS BAR
92,92,PANORAMA,46.2876,11.468,Cavalese,"VIA CAVAZAL, 3",+39(0462)341636,Stazione TN-Malè - RFI,Cavalese-Case Itea,FITNESS BAR
93,93,MONTANARA,46.3164217,11.600369,Predazzo,"VIA INDIPENDENZA, 110",+39(0462)501116,Stazione TN-Malè - RFI,Predazzo-Distributore Agip,POLDO PUB
94,94,LATEMAR,46.2830673,11.4369615,Castello-Molina di Fiemme,"VIA LATEMAR, 16",+39(0462)340055,Stazione TN-Malè - RFI,Castello di Fiemme,BAR CASTELLO
95,95,HOTEL MARGHERITA,46.3122,11.6663,Predazzo,"Via Viezzena, 1",+39(0462)576140,Mach,Bellamonte,SPORTING
96,96,GARNI' MANUELA,46.2914452,11.462862,Cavalese,"VIA PIZZEGODA, 3/A",+39(0462)230381,Stazione TN-Malè - RFI,Cavalese Piazza G.Verdi,BAR PLAZA
97,97,BELVEDERE,46.2854,11.5402,Panchià,"VIA NAZIONALE, 6",+39(0462)813088,Mach,Panchia',BAR CROCE BIANCA
98,98,SPORT HOTEL SASS MAOR,46.3098,11.6067,Predazzo,"VIA MARCONI, 4",+39(0462)501538,Mach,Predazzo Autostaz.,BAR PASTICCERIA SCARABELLIN
99,99,HOTEL SAN CELSO,46.3129,11.6663,Predazzo,"Via Pra de Mont, 27",+39(0462)576118,Mach,Bellamonte,SPORTING
100,100,ALBERGO EDY,46.3009,11.4486,Ville di Fiemme,"VIA COSTA DALL'OR, 8",+39(0462)340472,Stazione TN-Malè - RFI,Daiano,BAR BOCCE - DAIANO
101,101,ALPINO,46.3037483511803,11.456036567688,Varena,"VIA MERCATO, 8",+39(0462)340460,Stazione TN-Malè - RFI,Varena Centro-Alb. Alpino,BAR VARENA
102,102,LIZ,46.3071576990794,11.6002428531647,Predazzo,"VIA FIAMME GIALLE, 51",+39(0462)501264,Mach,Predazzo-Borgo Nuovo,BAR LAGORAI
103,103,HOTEL LA BICOCCA,46.3063869085652,11.7337417602539,Predazzo,"Via Nazionale, 3",+39(0462)576136,Mach,Paneveggio,SPORTING
104,104,CAURIOL,46.2904,11.5676,Ziano di Fiemme,"VIA CAURIOL, 5",+39(0462)571147,Mach,Ziano di Fiemme-Alla Roda,BAR AL PARCO - ZIANO DI FIEMME
105,105,NEGRITELLA,46.2840577,11.5612795,Ziano di Fiemme,"VIA STAZIONE, 5",+39(0462)571148,Mach,Ziano di Fiemme,BAR  BUNKER
106,106,ORSO GRIGIO,46.2915771,11.4589324,Cavalese,"VIA GIOVANELLI, 5",+39(0462)341481,Stazione TN-Malè - RFI,Cavalese P. Francescani,BAR GIARDINETTO
107,107,HOTEL CANADA,46.3037,11.6676,Predazzo,"Via della Torba, 1",+39(0462)576245,Mach,Bellamonte-H.Torretta,SPORTING
108,108,TILDE,46.2911146,11.5102901,Tesero,"VICOLO SCARIO, 3",+39(0462)814266,Stazione TN-Malè - RFI,Tesero,DIXIE PUB
109,109,HOTEL TORRETTA,46.3122,11.6663,Predazzo,"Via Prai de Mont, 43",+39(0462)576120,Mach,Bellamonte,SPORTING
110,110,CORONA,46.29,11.4386,Ville di Fiemme,"VIA COLTURA, 1/A",+39(0462)340246,Stazione TN-Malè - RFI,Carano Via Giovanelli,BAR AL TABIO
111,111,EXCELSIOR EL MOLIN,46.2916266,11.4595622,Cavalese,"PIAZZA C.BATTISTI, 11",+39(0462)340403,Stazione TN-Malè - RFI,Cavalese P. Francescani,BAR GIARDINETTO
112,112,LUCIA,46.3423,11.5451,Tesero,"VIA SOCCE, 9",+39(0462)813114,Stazione TN-Malè - RFI,Stava,SKI BAR SCUOLA DI SCI
113,113,ALLA ROCCA,46.304697060613,11.456937789917,Varena,"VIA ALPINI, 10",+39(0462)340321,Stazione TN-Malè - RFI,Varena,BAR VARENA
114,114,GARNI' BELVEDERE,46.3122283,11.6671593,Predazzo,Via Prai de Mont 14,+39(0462)576133,Mach,Bellamonte,SPORTING
115,115,MARIA,46.3162,11.5973,Predazzo,"CORSO DOLOMITI, 43",+39(0462)501203,Stazione TN-Malè - RFI,Predazzo-Distributore Agip,BIRRERIA PUB GAMS
116,116,PARK HOTEL REGINA DELLE DOLOMITI,46.2818,11.5444,Panchià,"VIA NAZIONALE, 2",+39(0462)813109,Mach,Panchia',BAR GIMA
117,117,ALBERGO VERONZA,46.2901,11.4328,Ville di Fiemme,"VIA DEL NONEDOL, 1",+39(0462)342222,Stazione TN-Malè - RFI,V.Veronza H.Veronza,BAR AL TABIO
118,118,GARNI' LAURINO,46.289883,11.4603011,Cavalese,"VIA ANTONIAZZI, 14",+39(0462)340151,Stazione TN-Malè - RFI,Cavalese Via Mendini,TANA DEL GRILLO
119,119,LA STUA,46.2932332,11.4591886,Cavalese,"VIA BALDIERONI, 2",+39(0462)340235,Stazione TN-Malè - RFI,Cavalese P. Francescani,BIRRERIA E SPAGHETTERIA IL VICOLETTO
120,120,GARNI' FONTE DEI VELI,46.2866,11.5384,Panchià,"VIA GIANTRETTEL, 25",+39 (0462)810002,Mach,Panchia',BAR CROCE BIANCA
121,121,HOTEL STELLA ALPINA,46.3122283,11.6671593,Predazzo,Via Prai de Mont 9,+39(0462)576114,Mach,Bellamonte,SPORTING
122,122,ZANON,46.2904,11.5676,Ziano di Fiemme,"VIA CORONELLA, 19",+39(0462)571100,Mach,Ziano di Fiemme-Alla Roda,BAR AL PARCO - ZIANO DI FIEMME
123,123,HOTEL ERICA,46.3150132141128,11.5029001235962,Tesero,"LOCALITA' STAVA, 1",+39(0462)810186,Stazione TN-Malè - RFI,Stava,CAFE' STRADIVARI
124,124,PONT'HOTEL,46.2838831,11.5603995,Ziano di Fiemme,"VIA STAZIONE, 3",+39(0462)571138,Mach,Ziano di Fiemme,BAR  BUNKER
125,125,HOTEL GARDEN,46.2893391,11.4526972,Cavalese,"VIA TRENTO, 23",+39(0462)340483,Stazione TN-Malè - RFI,Cavalese-Ospedale,BAR TRENTO
126,126,ANCORA,46.2728,11.4158,Castello-Molina di Fiemme,"VIA MARCONI, 4",+39(0462)340044,Stazione TN-Malè - RFI,Molina di Fiemme-Scuole,BAR SPORT
127,127,HOTEL BELLAMONTE,46.3122283,11.6671593,Predazzo,"VIA PRAI DE MONT, 52",+39(0462)576082,Mach,Bellamonte,SPORTING
128,128,HOTEL ANTICO,46.3122,11.6682,Predazzo,"Via Prai De Mont, 19",+39(0462)576122,Mach,Bellamonte,SPORTING
129,129,OLIMPIONICO HOTEL,46.2834064386361,11.4388704299927,Castello-Molina di Fiemme,"VIA DOLOMITI, 13",+39(0462)340744,Stazione TN-Malè - RFI,Castello di Fiemme Via Roma,BAR CASTELLO
130,130,SERENETTA,46.3030664561206,11.4554786682129,Varena,"VIA MERCATO, 22",+39(0462)340342,Stazione TN-Malè - RFI,Varena Centro-Alb. Alpino,BAR AL DRAGO
131,131,RIO STAVA FAMILY RESORT & SPA,46.2960997,11.5044179,Tesero,"VIA MULINI, 20",+39(0462)814446,Stazione TN-Malè - RFI,"Tesero Sp 215 ""Casa di Riposo""",BAR BOCCE - TESERO
132,132,PARK HOTEL SACRO CUORE,46.2915096,11.4565928,Cavalese,"VIA VAL DI RONCO, 1",+39(0462)340161,Stazione TN-Malè - RFI,Cavalese-P.Zza Partigiani,BAR GIARDINETTO
133,133,GOCCIA D'ORO,46.2887741,11.4516513,Cavalese,VIA RENALDO,+39(0462)342892,Stazione TN-Malè - RFI,Cavalese Via Marmolaia,BAR NUOVO POME
134,134,HOTEL MARIA,46.2929,11.4438,Ville di Fiemme,"VIA GIOVANELLI, 4/A",+39(0462)341472,Stazione TN-Malè - RFI,Carano Via Giovanelli 11,BAR BOCCE - CARANO
135,135,EUROTEL DEL CERMIS,46.2378104,11.4769019,Cavalese,LOCALITA' ALPE CERMIS,+39(0462)340572,Mach,Masi-Campo Sportivo,PICCOLO BAR
136,136,ROSENGARTEN,46.2828403,11.4357896,Castello-Molina di Fiemme,"VIA ROMA, 46",+39(0462)235507,Stazione TN-Malè - RFI,Castello di Fiemme,BAR CASTELLO
137,137,HOTEL SOLE - BELLAMONTE,46.310638,11.6747376,Predazzo,"Via de l'Or, 8",+39(0462)576299,Mach,Bellamonte-H.Torretta,SPORTING
138,138,BERG HOTEL MIRAMONTI,46.3162,11.5031,Tesero,"LOCALITÀ STAVA, 5",+39(0462)814177,Stazione TN-Malè - RFI,Stava,CAFE' STRADIVARI
139,139,SAN VALIER,46.288467,11.462169,Cavalese,"VIA MARCONI, 7",+39(0462)341285,Stazione TN-Malè - RFI,Cavalese Autostaz.,BAR STAZIONE
140,140,ITALIA,46.2724910452049,11.4168119430542,Castello-Molina di Fiemme,"VIA SEGHERIE, 80",+39(0462)341335,Stazione TN-Malè - RFI,Molina di Fiemme-Scuole,BAR SPORT
141,141,LOS ANDES,46.282358,11.4379361,Castello-Molina di Fiemme,"VIA DOLOMITI, 5",+39(0462)340098,Stazione TN-Malè - RFI,Castello di Fiemme,BAR CASTELLO
142,142,SCOIATTOLO,46.3418295,11.5401582,Tesero,"LOCALITA'PAMPEAGO, 1",+39(0462)813244,Stazione TN-Malè - RFI,Stava,SPORT HOTEL PAMPEAGO
143,143,AL CERVO,46.2892,11.5117,Tesero,"VICOLO PARE', 4",+39(0462)813139,Mach,Tesero,BAR PAN & CAFFE'
144,144,VINELLA,46.3169991468948,11.5974855422974,Predazzo,"VIA MAZZINI, 76",+39(0462)501151,Stazione TN-Malè - RFI,Predazzo-Distributore Agip,POLDO PUB
145,145,HOTEL SHANDRANI (DIP),46.3225119556636,11.5042304992676,Tesero,LOCALITA'STAVA,+39(0462)814737,Stazione TN-Malè - RFI,Stava,CAFE' STRADIVARI
146,146,ANCORA,46.3111745278179,11.6029357910156,Predazzo,"VIA IX NOVEMBRE, 1",+39(0462)501651,Mach,Predazzo Autostaz.,BAR ANCORA
147,147,DOLOMITI,46.3481,11.4905,Varena,"VIA LAVAZE', 1",+39(0462)341103,Cavalleggeri,Stava,CAFE' STRADIVARI
148,148,COSTABELLA,46.2960981,11.454679,Cavalese,"VIA COSTABELLA, 1",+39(0462)340589,Stazione TN-Malè - RFI,Cavalese-V.Matteotti Km.22,BAR VIENNA
149,149,HOTEL BELLARIA,46.3114,11.5993,Predazzo,"CORSO A.DEGASPERI, 20",+39(0462)501648,Mach,Predazzo-I.T.C.,VIDEO MUSIC
150,150,BELLA COSTA,46.2893391,11.4526972,Cavalese,"VIA TRENTO, 34/A",+39(0462)231154,Stazione TN-Malè - RFI,Cavalese-Ospedale,BAR TRENTO
151,151,POLO,46.2904,11.5676,Ziano di Fiemme,"VIA NAZIONALE, 7/9",+39(0462)571131,Mach,Ziano di Fiemme-Alla Roda,BAR AL PARCO - ZIANO DI FIEMME
152,152,MONTANARA,46.2904,11.5676,Ziano di Fiemme,"VIA NAZIONALE, 116",+39(0462)571142,Mach,Ziano di Fiemme-Alla Roda,BAR AL PARCO - ZIANO DI FIEMME
153,153,HOTEL BELLAVISTA - HBV WINEBAR,46.2919029229954,11.4616584777832,Cavalese,"VIA PIZZEGODA, 5",+39(0462)340205,Stazione TN-Malè - RFI,Cavalese Piazza G.Verdi,BAR PLAZA
154,154,BELVEDERE (DIP),46.2818,11.5444,Panchià,"VIA NAZIONALE, 1/L",+39(0462)813088,Mach,Panchia',BAR GIMA
155,155,HOTEL VILLA DI BOSCO,46.3126122140671,11.5039730072021,Tesero,"LOCALITA'STAVA, 2",+39(0462)813738,Stazione TN-Malè - RFI,Stava-Chiesetta,CAFE' STRADIVARI
156,156,HOTEL SHANDRANI,46.3207929673643,11.5024065971375,Tesero,"VIA PAMPEAGO, 36",+39(0462)814737,Stazione TN-Malè - RFI,Stava,CAFE' STRADIVARI
157,157,HOTEL DOLOMITI,46.2588,11.3379,Capriana,"VIA DALLIO GIOVANBATTISTA, 22/24",+39(0462)816081,Stazione TN-Malè - RFI,Capriana-Case Nuove,Pensione Maria
158,158,ZALUNA,46.3144,11.6469,Predazzo,"LOCALITA' ZALUNA, 2",+39(0462)576126,Mach,Bellamonte-Albergo Zaluna,SPORTING
159,159,CASTELIR SUITE HOTEL GARNI',46.2852,11.5388,Panchià,"VIA NAZIONALE, 57",+39(0462)810001,Mach,Panchia',BAR CROCE BIANCA
160,160,SPORT HOTEL LAVAZE',46.3481,11.4905,Varena,PASSO DI LAVAZE',+39(0462)340612,Cavalleggeri,Stava,CAFE' STRADIVARI
161,161,PANORAMA,46.2818,11.5444,Panchià,"VIA TEMPLARI, 51",+39(0462)813137,Mach,Panchia',BAR GIMA
162,162,POZZOLE,46.3201867,11.499024,Tesero,"VIA POZZOLE, 8",+39(0462)813788,Stazione TN-Malè - RFI,Stava,CAFE' STRADIVARI
163,163,SPORTING CLUB,46.28581,11.46419,Cavalese,LOCALITA' ALPE CERMIS,+39(0462)341650,Stazione TN-Malè - RFI,Cavalese Autostaz.,BAR PUB SOTTOZERO
164,164,TOURING,46.3102,11.6022,Predazzo,"VIA TRENTO, 5",+39(0462)501212,Mach,Predazzo Autostaz.,BAR PASTICCERIA LISA
165,165,CIMON DOLOMITES HOTEL,46.304,11.601,Predazzo,"VIA DELLE FONTANELE, 1",+39(0462)501691,Mach,Predazzo-Borgo Nuovo,BAR LAGORAI
166,166,HOTEL NELE,46.2904,11.5676,Ziano di Fiemme,"VIA RODA, 3",+39(0462)571146,Mach,Ziano di Fiemme-Alla Roda,BAR AL PARCO - ZIANO DI FIEMME
167,167,PINETA,46.282485,11.436734,Castello-Molina di Fiemme,"LOCALITA'  VAL CADINO, 2",+39(0462)341332,Stazione TN-Malè - RFI,Castello di Fiemme,BAR CASTELLO
168,168,HOTEL LAGORAI RESORT & SPA,46.2914,11.4716,Cavalese,"VIA VAL DI FONTANA, 2",+39(0462)340454,Stazione TN-Malè - RFI,Cavalese-Case Itea,FITNESS BAR
169,169,GENZIANELLA,46.2869575,11.5649995,Ziano di Fiemme,"VIA SENTIERO DEGLI ALPINI, 2",+39(0462)571108,Mach,Ziano di Fiemme-Alla Roda,BAR AL PARCO - ZIANO DI FIEMME
170,170,MASO GANZAIE,46.3092,11.4356,Ville di Fiemme,LOCALITA'GANZAIE,+39(0462)341811,Stazione TN-Malè - RFI,Daiano Via Arca I,BAR BOCCE - DAIANO
171,171,VILLA MONICA - DIPENDENZA,46.2720429,11.4176535,Castello-Molina di Fiemme,"VIA GIARDINI, 1",+39(0462)341335,Stazione TN-Malè - RFI,Molina di Fiemme-Scuole,BAR SPORT
172,172,DOLOMITI,46.2924,11.4619,Cavalese,"VIA MONTEBELLO, 18",+39(0462)340315,Stazione TN-Malè - RFI,Cavalese Piazza G.Verdi,BIRRERIA E SPAGHETTERIA IL VICOLETTO
173,173,SPORT HOTEL PAMPEAGO,46.3418295,11.5401582,Tesero,"LOCALITA'PAMPEAGO, 8",+39(0462)813500,Stazione TN-Malè - RFI,Stava,SPORT HOTEL PAMPEAGO
174,174,ALBERGO BUCANEVE,46.3481,11.4905,Varena,"PASSO DI LAVAZE', 19",+39(0462)340506,Cavalleggeri,Stava,CAFE' STRADIVARI
175,175,GRÜNWALD,46.2881,11.4602,Cavalese,"VIA BRESADOLA, 2",+39(0462)340369,Stazione TN-Malè - RFI,Cavalese Via Mendini,BAR STAZIONE
176,176,PARK HOTEL VILLA TRUNKA LUNKA,46.2901777,11.4605315,Cavalese,"VIA A.DEGASPERI, 4",+39(0462)340233,Stazione TN-Malè - RFI,Cavalese Piazza G.Verdi,TANA DEL GRILLO
177,177,HOTEL VILLA JOLANDA,46.2904,11.5676,Ziano di Fiemme,"VIA NAZIONALE, 10",+39(0462)571121,Mach,Ziano di Fiemme-Alla Roda,BAR AL PARCO - ZIANO DI FIEMME
178,178,TORRETTA (DIP),46.3122,11.6663,Predazzo,FRAZIONE DI BELLAMONTE,+39(0462)576120,Mach,Bellamonte,SPORTING
179,179,ALBERGO BELLARIA,46.2922735947519,11.4436340332031,Ville di Fiemme,"VIA GIOVANELLI, 5",+39(0462)341051,Stazione TN-Malè - RFI,Carano Via Giovanelli 11,BAR BOCCE - CARANO
180,180,RIO BIANCO,46.2818,11.5444,Panchià,"VIA NAZIONALE, 42",+39 0462 810060,Mach,Panchia',BAR GIMA
181,181,BELVEDERE,46.1133,11.3282,Fierozzo,"VIA RONCA, 2",+39(0461)551131, Cimitero Villazzano,Hacleri-Sp 135 Km. 8.8,BAR GENZIANELLA 
182,182,HOTEL SAT LAGORAI,46.1486585315651,11.5146160125732,Scurelle,LOCALITA' CENONE,+39 (333) 6528048,Mach,Samone,Bar Rododendro
183,183,TERMINUS,46.0160536397623,11.2996101379395,Levico Terme,"VIA SALINA, 27",+39(0461)706453, Cimitero Villazzano,Levico T. Alb.Miralago,Impero Caffè
184,184,DA CIOLDA,46.0323682940693,11.2303447723389,Pergine Valusgana,"VALCANOVER, 95",+39(0461)548007, Cimitero Villazzano,"Valcanover ""Ex Lanterna""",Bar Smile
185,185,NAZIONALE,46.0669185957362,11.523585319519,Castel Ivano,"VIA XXIV MAGGIO, 4",+39(348)2653245, Cimitero Villazzano,Strigno,Bar Rododendro
186,186,ALPINO,46.1085,11.3023,Sant'Orsola Terme,"LOCALITA'PINTAREI, 53",+39(0461)551119, Cimitero Villazzano,S.Orsola,Bar Al Sole
187,187,VILLA WAIZ,46.0507928471089,11.4096450805664,Roncegno Terme,PIAZZA ACHILLE DE GIOVANNI,(0039) 0461 764184 , Cimitero Villazzano,Roncegno-Municipio,Fanny Pub
188,188,AL BRENTA,46.0059048374363,11.2918639183044,Levico Terme,"VIA BRENTA, 33",+39(0461)706131, Cimitero Villazzano,Levico T. Rist. Brenta,Bax Bar
189,189,PAOLI HOTEL - ANTICA TRATTORIA ALLA VEDOVA,45.9894,11.2984,Caldonazzo,"LOCALITA'LOCHERE, 6",+39(0461)700017, Mattarello,Loc. Lochere,Bax Bar
190,190,BELLAVISTA RELAX HOTEL,46.0157,11.2954,Levico Terme,"VIALE VITTORIO EMANUELE III, 7",+39(0461)706136, Cimitero Villazzano,Levico T. Alb.Miralago,Impero Caffè
191,191,HOTEL CRISTO D'ORO,46.0799,11.5225,Samone,"VIA MONTE CIMA, 10",+39(0461)762243, Cimitero Villazzano,Samone Via Nuova Inferiore,Bar Rododendro
192,192,COMPET,46.0394588250821,11.2998676300049,Vignola-Falesina,"COMPET, 26",+39(0461)706466, Cimitero Villazzano,Vignola,Bar Alpino
193,193,PIROGA,46.005,11.2472,Calceranica Al Lago,"VIA PENISOLA VERDE, 1",+39(0461)723150, Mattarello,Calceranica Al Lago,Bar Sporting
194,194,EDEN LIBARDI,46.0148764145663,11.2962734699249,Levico Terme,"VIA V.EMANUELE, 18",+39(0461)706103, Cimitero Villazzano,Levico T. Alb.Miralago,Impero Caffè
195,195,VILLA ROSA,46.0515970126139,11.4096772670746,Roncegno Terme,"VIA SAN GIUSEPPE, 19",+39(0461)764489, Cimitero Villazzano,Roncegno-Municipio,Fanny Pub
196,196,DA REMO,45.9975727842012,11.6663217544556,Grigno,"VIA MASETTO VECCHIO, 59",+39(0461)769190, Cimitero Villazzano,Tezze-V. Masetto Vecchio,Bar Da Toni
197,197,LA ROTONDA,46.0596,11.2372,Pergine Valusgana,"VIALE VENEZIA, 37",+39(0461)531128, Cimitero Villazzano,Pergine V. V.Le Venezia,Bar Bazar
198,198,ROMANDA,46.0112551723709,11.30042552948,Levico Terme,"VIA GARIBALDI, 5",+39(0461)707122, Cimitero Villazzano,Levico Terme Autostazione,Bar Serena
199,199,SCARANO',46.0161132454348,11.3154244422913,Levico Terme,"S.P. PER VETRIOLO, 106",+39(0461)706810, Cimitero Villazzano,Levico T. Polo Scolastico,Bar Selva
200,200,IDEAL,46.0090495259599,11.3124847412109,Levico Terme,"VIALE D.GIANNETTINI, 5",+39(0461)706701, Cimitero Villazzano,Levico Terme Cimitero,Bar Adriano
201,201,GULLIVER,46.0281,11.2294,Pergine Valusgana,"FRAZ.IONE SAN CRISTOFORO - VIALE EUROPA, 1",+39(0461)531009, Cimitero Villazzano,Valcanover,Bar Smile
202,202,CONCA D'ORO (DIP),46.0172233893427,11.6357553005219,Grigno,"VIA VITTORIO EMANUELE, 5",+39(0461)765126, Cimitero Villazzano,Grigno-Segheria,Caffè Italia
203,203,LA RUSCOLETTA,46.1120843144361,11.4948534965515,Telve,LOCALITA'MUSIERA DI SOTTO,+39(0461)766474, Cimitero Villazzano,Samone,Bar Baltik
204,204,CONCORDIA,46.0327,11.2474,Pergine Valusgana,"VIA DON G. ANGELI, 31",+39 (0461) 538325, Cimitero Villazzano,Ischia di Pergine,21.1 Beach
205,205,KAPRIOL,46.0799884606992,11.6398966312408,Castello Tesino,FRAZ. FRADEA,+39(0461)594126, Cimitero Villazzano,Castello T.-Ip,Bar Al Ponte
206,206,MIRAVALLE,46.0084384867338,11.314480304718,Levico Terme,"VIALE VENEZIA, 78",+39(0461)700080, Cimitero Villazzano,Levico Terme Cimitero,Bar Adriano
207,207,MEZZOLAGO,46.0253066511327,11.2285959720612,Pergine Valusgana,"FRAZIONE VALCANOVER, 85",+39(0039)530158, Cimitero Villazzano,"Valcanover ""Casa Sociale""",Bar Smile
208,208,PEDROTTI,46.0127603265231,11.2977004051208,Levico Terme,"VIA GARIBALDI, 103",+39(0461)706147, Cimitero Villazzano,Levico T. Alb.Miralago,Impero Caffè
209,209,CLAUDIA,46.0143772039101,11.3016164302826,Levico Terme,"VIA G.DE VETTORAZZI, 1",+39(0461)706596, Cimitero Villazzano,Levico T. Polo Scolastico,Bar Alpino
210,210,CONCA D'ORO,46.0172159387867,11.6356801986694,Grigno,"PIAZZA DANTE, 1",+39(0461)765126, Cimitero Villazzano,Grigno-Segheria,Caffè Italia
211,211,PARK HOTEL VILLA ANGIOLINA,46.0455208054936,11.409387588501,Roncegno Terme,"VIALE ROMA, 5",+39(0461)771071, Cimitero Villazzano,Roncegno-Via Ciocca,Fanny Pub
212,212,LA PACE (DIP),46.0153,11.2967,Levico Terme,"VIALE ROMA, 3",+39(0461)706117, Cimitero Villazzano,Levico T. Alb.Miralago,Impero Caffè
213,213,HOTEL LEVICO,46.0169,11.2942,Levico Terme,"VIA V.EMANUELE, 54",+39(0461)706335, Cimitero Villazzano,Levico T. Alb.Miralago,Impero Caffè
214,214,PARK HOTEL DU LAC,46.0151,11.286,Levico Terme,"LOCALITA' AL LAGO, 3",+39(0461)706590, Cimitero Villazzano,Levico T. Alb.Miralago,Impero Caffè
215,215,HOTEL ROMA,46.0427654423075,11.3145446777344,Levico Terme,VETRIOLO TERME,+39(0461)707910, Cimitero Villazzano,Maso Tingherla,Bar Selva
216,216,CONCORDIA,46.0155,11.2956,Levico Terme,"VIA V.EMANUELE, 1",+39(0461)706230, Cimitero Villazzano,Levico T. Alb.Miralago,Impero Caffè
217,217,ANTONIOLLI,46.0088,11.291,Levico Terme,"VIALE SEGANTINI, 12",+39(0461)706032, Cimitero Villazzano,Levico T. Rist.Brenta,Bax Bar
218,218,LA PACE,46.0153,11.2967,Levico Terme,"VIALE ROMA, 9",+39(0461)706117, Cimitero Villazzano,Levico T. Alb.Miralago,Impero Caffè
219,219,MERIDIANA,46.0398014117316,11.2420606613159,Pergine Valusgana,"VIA VALSUGANA, 7",+39(0461)538039, Cimitero Villazzano,S.Cristoforo-Ht.Meridiana,21.1 Beach
220,220,ANTICA ROSA,46.0112998805103,11.3000178337097,Levico Terme,"VIA GARIBALDI, 15",+39(0461)706154, Cimitero Villazzano,Levico Terme Autostazione,Bar Serena
221,221,CRISTALLO,46.014559751613,11.3018471002579,Levico Terme,"VIA G. DE VETTORAZZI, 2",+39(0461)706427, Cimitero Villazzano,Levico T. Polo Scolastico,Bar Alpino
222,222,PIZZO DEGLI UCCELLI,46.1188671376725,11.6885089874268,Castello Tesino,PASSO BROCON,+39(0461)594365, Cimitero Villazzano,Ronco Chiesa,Bar Roma
223,223,HOTEL MARGHERITA,46.0297463547353,11.2568664550781,Tenna,"LOCALITA' PINETA ALBERE', 2",+39(0461)706445, Cimitero Villazzano,Alberè di Tenna,21.1 Beach
224,224,MIRAMONTI,46.0501524847217,11.2524461746216,Pergine Valusgana,"VIA ALLE CANZANE, 5",+39(0461)531268, Cimitero Villazzano,Assizzi Bivio-Dir. Levico,Gretter
225,225,ALPINA,46.064469512512,11.6322791576385,Castello Tesino,"VIA MUNICIPIO VECCHIO, 9",+39(0461)594127, Cimitero Villazzano,Castello Tesino,Bar Roma
226,226,GILDA,45.9953964062115,11.2666511535645,Caldonazzo,"VIA BRENTA, 22",+39(0461)723446, Mattarello,Caldonazzo-Staz. Fs,Bar Ideal
227,227,LIBERTY,46.0148466110715,11.2961661815643,Levico Terme,"VIALE VITTORIO EMANUELE, 18",+39(0461)701521, Cimitero Villazzano,Levico T. Alb.Miralago,Impero Caffè
228,228,AURORA,46.0836,11.2264,Pergine Valusgana,"VIA LUNGO LAGO, 16",+39(0461)552145, Cimitero Villazzano,Canzolino-Hotel Miralago,SDAD di Favara Serafina
229,229,ALLA TORRE,45.9926907210768,11.2591302394867,Caldonazzo,"VIA DELLA VILLA, 37",+39(0461)723331, Mattarello,Caldonazzo,Bar Sporting
230,230,TURISMO,46.0596,11.2372,Pergine Valusgana,"VIALE VENEZIA, 20",+39(0461)531073, Cimitero Villazzano,Pergine V. V.Le Venezia,Bar Bazar
231,231,NEGRITELLA,46.077339011571,11.456401348114,Torcegno,"VIA SAVARI, 24/B",+39(0461)766341, Cimitero Villazzano,Campestrini,Bar Baltik
232,232,VITTORIA,46.0129689585196,11.2983924150467,Levico Terme,"VIA DANTE, 54",+39(0461)706430, Cimitero Villazzano,Levico T. Alb.Miralago,Impero Caffè
233,233,AQUILA NERA,46.0745,11.3036,Frassilongo,"MASO CAMAOVRUNT, 137",+39(0461)549090, Cimitero Villazzano,Kamauz,Bar Al Sole
234,234,LIDO,46.0058452207613,11.2630462646484,Caldonazzo,"VIA LUNGO LAGO, 1",+39(0461)723455, Mattarello,Ischia-Alle Terrazze,Bar Imbiss Stube SNOOKY
235,235,HOTEL ELITE,46.0146826915631,11.2990736961365,Levico Terme,"VIA ROMA, 19",+39(0461)706283, Cimitero Villazzano,Levico T. Alb.Miralago,Impero Caffè
236,236,FLORIDA,46.0145,11.2878,Levico Terme,"VIA SEGANTINI, 20",+39(0461)706400, Cimitero Villazzano,Levico T. Alb.Miralago,Impero Caffè
237,237,PALACE HOTEL CASA DI SALUTE RAPHAEL,46.0498099622576,11.4094519615173,Roncegno Terme,"P.ZZA A. DE GIOVANNI, 4",+39(0461)772000, Cimitero Villazzano,Roncegno-Municipio,Fanny Pub
238,238,ALLA COMPARSA,46.0941563885027,11.2337779998779,Pergine Valusgana,CIVICO N. 14,+39(0461)557707, Cimitero Villazzano,Montagnaga,Hotel Belvedere Wellness & Family
239,239,RONCEGNO,46.0712,11.4718,Roncegno Terme,"VIA SAN GIUSEPPE, 27",+39(349)5953263, Cimitero Villazzano,Telve di Sopra,Bar Baltik
240,240,AL PONTE,46.0695983191487,11.2246799468994,Pergine Valusgana,"LOCALITA' MASO GRILLO, 4",+39(0461)538356, Cimitero Villazzano,Ponte Fersina,Agip Cafè
241,241,ALBERGO RISTORANTE CIRE',46.0751,11.2107,Pergine Valusgana,"FRAZ. CIRE, 9",+39(0461)538444, Cimitero Villazzano,Cire' Via Al Dos De La Roda 12,Bar Muttley
242,242,MADRANO,46.0857334582668,11.2153244018555,Pergine Valusgana,"PIAZZA G. PRADA, 11",+39(0461)552160, Cimitero Villazzano,Madrano-Alb.Madrano,SDAD di Favara Serafina
243,243,SANDRO (DIP),46.0139226947667,11.302056312561,Levico Terme,"VIA MONS.CAPRONI,33",+39(0461)706164, Cimitero Villazzano,Levico T. Polo Scolastico,Bar Alpino
244,244,HOTEL BAVARIA,46.0078,11.2928,Levico Terme,"VIALE BRENTA, 30",+39(0461)707599, Cimitero Villazzano,Levico T. Rist.Brenta,Bax Bar
245,245,SEDRAN,46.0396971464544,11.2347006797791,Pergine Valusgana,"VIALE STAZIONE, 4",+39(0461)531539, Cimitero Villazzano,S.Cristoforo Al Lago-Fs,Bel Sit Mister Gulliver Pub
246,246,HOTEL MIRALAGO,46.0123,11.296,Levico Terme,"VIALE TRENTO, 22",+39(0461)706359, Cimitero Villazzano,Levico T. Alb.Miralago,Impero Caffè
247,247,VEZZENA,45.9571765971136,11.3289642333984,Levico Terme,"LOCALITA' PASSO VEZZENA, 2",+39(0464)784197, Mattarello,Monterovere,Bar Buffet Stazione FS
248,248,ALBERGO CIMA D'ASTA,46.0689,11.6099,Pieve Tesino,"VIA BRIGATA ABRUZZI, 2",+39(0461)592112, Cimitero Villazzano,Pieve Tesino,Bar Centrale
249,249,LA NUOVA CONCA D'ORO,46.0166794961189,11.6342908143997,Grigno,"VIA VITTORIO EMANUELE, 33",+39(0461)765126, Cimitero Villazzano,Grigno,Caffè Italia
250,250,AMBASSADOR,46.0153383666814,11.2888383865356,Levico Terme,"VIALE BELVEDERE, 50",+39(0461)707101, Cimitero Villazzano,Levico T. Alb.Miralago,Impero Caffè
251,251,VECCHIA FATTORIA,46.0106,11.296,Levico Terme,"VIA PER CALDONAZZO, 27",+39(0461)700242, Cimitero Villazzano,Levico Terme Autostazione,Impero Caffè
252,252,HOTEL AL SORRISO,46.0135,11.2881,Levico Terme,"VIA SEGANTINI, 14",+39(0461)707029, Cimitero Villazzano,Levico T. Alb.Miralago,Impero Caffè
253,253,IMPERIAL GRAND HOTEL TERME,46.0123728650129,11.3059830665588,Levico Terme,"VIA SILVA DOMINI, 2",+39(0461)706104, Cimitero Villazzano,Levico T. Polo Scolastico,Bar Alpino
254,254,SPORT,46.0121865844745,11.289986371994,Levico Terme,"VIA SEGANTINI, 4",+39(0461)706297, Cimitero Villazzano,Levico T. Alb.Miralago,Impero Caffè
255,255,AURORA,46.039786516704,11.3001251220703,Vignola-Falesina,"LOCALITA'COMPET, 28",+39(0461)706467, Cimitero Villazzano,Vignola,Bar Alpino
256,256,LUCIA,46.0132521006846,11.299524307251,Levico Terme,"Viale Roma, 20",+39(0461)706229, Cimitero Villazzano,Levico T. Alb.Miralago,Impero Caffè
257,257,VILLA ESTER,46.0151893502917,11.2646341323853,Tenna,"VIA CAMPOLONGO, 22",+39(0461)706539, Cimitero Villazzano,Tenna-Sp 16 Al Km 4,Bar Imbiss Stube SNOOKY
258,258,CARRARO,46.0804201004719,11.5544682741165,Bieno,"VIA AMM. GIOVANNI BETTOLO, 8",+39(0461)596309, Cimitero Villazzano,Bieno,Bar Rododendro
259,259,ENERGY HOTEL,46.0044330319863,11.2431013584137,Calceranica Al Lago,"CORSO ALPINI, 1",+39(0461)723008, Mattarello,Calceranica Al Lago,Bar Sporting
260,260,SANDRO,46.0138779887476,11.3021850585938,Levico Terme,"VIA MONS.CAPRONI, 33",+39(0461)706164, Cimitero Villazzano,Levico T. Polo Scolastico,Bar Alpino
261,261,ROCCA (DIP),46.0153,11.2967,Levico Terme,"VIALE ROMA, 5",+39(0461)706236, Cimitero Villazzano,Levico T. Alb.Miralago,Impero Caffè
262,262,AL CASTELLO,46.0591913315693,11.249828338623,Pergine Valusgana,"LOCALITA' CASTELLO, 10",+39(0461)531158, Cimitero Villazzano,Pergine V.S.Pietro Parch.Curie,Perché Bar
263,263,ALLA STAZIONE,46.0328,11.3919,Roncegno Terme,"VIA NAZIONALE, 20",+39(0461)773172, Cimitero Villazzano,Marter-Autoespresso,Bar Campiello
264,264,CENTRALE,46.1083578687567,11.3026249408722,Sant'Orsola Terme,"LOCALITA' PINTAREI, 78",+39(0461)551115, Cimitero Villazzano,S.Orsola,Bar Al Sole
265,265,CACCIATORE,46.0225055808545,11.3115406036377,Levico Terme,LOCALITÀ PRATI DI MONTE,+39(0461)701575, Cimitero Villazzano,Levico T. Polo Scolastico,Bar Selva
266,266,ACLER,46.0138,11.3024,Levico Terme,"VIA MONS.CAPRONI, 36",+39(0461)706167, Cimitero Villazzano,Levico T. Polo Scolastico,Bar Alpino
267,267,VALCANOVER,46.0275861408122,11.2296581268311,Pergine Valusgana,"VIA LUNGOLAGO, 73",+39(0461)548037, Cimitero Villazzano,Valcanover,Bar Smile
268,268,MICAMADA,46.0046901350016,11.2467813491821,Calceranica Al Lago,"VIA SAN PIETRO, 3",+39(0461)723328, Mattarello,Calceranica Al Lago,Bar Sporting
269,269,SEMIRAMIS,46.0525,11.4101,Roncegno Terme,"VIA POLA, 9",+39(0461)764108, Cimitero Villazzano,Roncegno-Municipio,Fanny Pub
270,270,AARITZ,46.0153,11.2967,Levico Terme,"VIALE ROMA, 53",+39(0461)706427, Cimitero Villazzano,Levico T. Alb.Miralago,Impero Caffè
271,271,AL SALUS,46.0143213218398,11.2961393594742,Levico Terme,"VIA PIGIO, 3/5",+39(0461)706328, Cimitero Villazzano,Levico T. Alb.Miralago,Impero Caffè
272,272,HOTEL DANIELA,46.0085502627065,11.3061654567719,Levico Terme,"VIALE VENEZIA, 3",+39(0461)706213, Cimitero Villazzano,Levico T. Ex Scuole Medie,Bar Adriano
273,273,BELVEDERE,46.0728138155206,11.2448072433472,Pergine Valusgana,"VIA CASTEL DI ROCCA, 3",+39(0461)552140, Cimitero Villazzano,Serso Centrale Idroelettrica,Bar Brazzaniga
274,274,CORONA,46.1085,11.3023,Sant'Orsola Terme,"LOCALITA' PINTAREI, 15",+39(0461)551121, Cimitero Villazzano,S.Orsola,Bar Al Sole
275,275,DUE SPADE,45.9916173547901,11.2616407871246,Caldonazzo,"PIAZZA MUNICIPIO, 2",+39(0461)723113, Mattarello,Caldonazzo,Bar Centrale
276,276,BELLARIA,46.0121,11.3161,Levico Terme,"VIA SELVA, 3",+39(0461)706595, Cimitero Villazzano,Levico Terme Cimitero,Bar Selva
277,277,SAN CRISTOFORO,46.0281,11.2294,Pergine Valusgana,"VIALE EUROPA, 29",+39(0461)531105, Cimitero Villazzano,Valcanover,Bar Smile
278,278,VILLA FLORA,46.0508263542387,11.4096772670746,Roncegno Terme,"P.ZZA  A.DE GIOVANNI, 5",+39(0461)764184, Cimitero Villazzano,Roncegno-Municipio,Fanny Pub
279,279,VITTORIA,46.05,11.4159,Roncegno Terme,"VIA S.GIUSEPPE, 1",+39(0461)773026, Cimitero Villazzano,Roncegno Terme,Fanny Pub
280,280,GARNI' BELLAVISTA,46.0042355462502,11.2605571746826,Calceranica Al Lago,"VIALE VENEZIA, 12",+39(0461)723214, Mattarello,Caldonazzo-Staz. Fs,Bar Ideal
281,281,NIKOLI,46.0783511756929,11.204080581665,Pergine Valusgana,"VIA AL DOS DE LA RODA, 13",+39(0461)538433, Cimitero Villazzano,Cirè-Superstrada,Bar Muttley
282,282,HOTEL SPERA,46.0715,11.506,Castel Ivano,"VIA CARZANO, 7",+39(0461)762042, Cimitero Villazzano,Spera Via Cenone,Bar Baltik
283,283,HOTEL VILLA REGINA,46.0134681818879,11.2975823879242,Levico Terme,"VIALE VITTORIO EMANUELE, 8",+39(0461)707713, Cimitero Villazzano,Levico T. Alb.Miralago,Impero Caffè
284,284,MONTE CIMONE,45.9958,11.2703,Caldonazzo,"VIALE TRENTO, 19/21",+39(0461)723100, Mattarello,Caldonazzo-Via Roma,Bar Imbiss Stube SNOOKY
285,285,BELLAVISTA,46.0661593171176,11.634349822998,Castello Tesino,"VIA ROMA, 17",+39(0461)594169, Cimitero Villazzano,Castello Tesino,Bar Roma
286,286,GARDEN,46.0155,11.2956,Levico Terme,"VIA V.EMANUELE, 22",+39(0461)706300, Cimitero Villazzano,Levico T. Alb.Miralago,Impero Caffè
287,287,DOLOMITI,46.0088066,11.2909591,Levico Terme,"VIA TRAVERSA LIDO, 28",+39(0461)706022, Cimitero Villazzano,Levico T. Rist.Brenta,Bax Bar
288,288,KAMAUZ,46.0745,11.3036,Frassilongo,"MASO FRUNT, 147",+39(0461)549070, Cimitero Villazzano,Kamauz,Bar Al Sole
289,289,PASSO BROCON,46.119,11.6881,Castello Tesino,LOCALITA'  PASSO BROCON,+39(0039)594364, Cimitero Villazzano,Ronco Chiesa,Bar Roma
290,290,LA ROTONDA (DIP),46.0596,11.2372,Pergine Valusgana,"VIALE VENEZIA, 39",+39(0461)531128, Cimitero Villazzano,Pergine V. V.Le Venezia,Bar Bazar
291,291,ROCCA,46.0154426779152,11.2963700294495,Levico Terme,"VIALE ROMA, 5",+39(0461)706236, Cimitero Villazzano,Levico T. Alb.Miralago,Impero Caffè
292,292,ARISTON,46.0152,11.2909,Levico Terme,"VIA BELVEDERE, 56",+39(0461)701482, Cimitero Villazzano,Levico T. Alb.Miralago,Impero Caffè
293,293,VILLA FLORA,46.0073654259041,11.3062834739685,Levico Terme,"VIA TONELLI, 31",+39(0461)706311, Cimitero Villazzano,Levico Terme-Staz. Fs,Bar Buffet Stazione FS
294,294,FAMILY PRIMAVERA,46.0091501232342,11.2985962629318,Levico Terme,"VIA CLAUDIA AUGUSTA, 3",+39(0461)706193, Cimitero Villazzano,Levico Terme Autostazione,Bar Turismo
